[{"OBJECT_NAME":"ONEWEB-0255","OBJECT_ID":"2021-060G","EPOCH":"2023-10-22T14:44:44.932416","MEAN_MOTION":13.16594561,"ECCENTRICITY":0.000163,"INCLINATION":87.9059,"RA_OF_ASC_NODE":61.5579,"ARG_OF_PERICENTER":98.2415,"MEAN_ANOMALY":261.8901,"EPHEMERIS_TYPE":0,"CLASSIFICATION_TYPE":"U","NORAD_CAT_ID":48973,"ELEMENT_SET_NO":999,"REV_AT_EPOCH":11221,"BSTAR":-4.0619e-5,"MEAN_MOTION_DOT":-3.0e-8,"MEAN_MOTION_DDOT":0},{"OBJECT_NAME":"ONEWEB-0256","OBJECT_ID":"2021-060H","EPOCH":"2023-10-22T09:52:53.252544","MEAN_MOTION":13.16596399,"ECCENTRICITY":0.0001906,"INCLINATION":87.9056,"RA_OF_ASC_NODE":61.6018,"ARG_OF_PERICENTER":98.4086,"MEAN_ANOMALY":261.7261,"EPHEMERIS_TYPE":0,"CLASSIFICATION_TYPE":"U","NORAD_CAT_ID":48974,"ELEMENT_SET_NO":999,"REV_AT_EPOCH":11215,"BSTAR":0.0004397,"MEAN_MOTION_DOT":1.81e-6,"MEAN_MOTION_DDOT":0},{"OBJECT_NAME":"ONEWEB-0257","OBJECT_ID":"2021-060J","EPOCH":"2023-10-22T14:20:24.566784","MEAN_MOTION":13.16596414,"ECCENTRICITY":0.000181,"INCLINATION":87.9063,"RA_OF_ASC_NODE":61.5362,"ARG_OF_PERICENTER":93.9998,"MEAN_ANOMALY":266.134,"EPHEMERIS_TYPE":0,"CLASSIFICATION_TYPE":"U","NORAD_CAT_ID":48975,"ELEMENT_SET_NO":999,"REV_AT_EPOCH":11213,"BSTAR":0.0001313,"MEAN_MOTION_DOT":6.3e-7,"MEAN_MOTION_DDOT":0},{"OBJECT_NAME":"ONEWEB-0258","OBJECT_ID":"2021-060K","EPOCH":"2023-10-22T14:23:27.339936","MEAN_MOTION":13.16595725,"ECCENTRICITY":0.0001594,"INCLINATION":87.9061,"RA_OF_ASC_NODE":61.5647,"ARG_OF_PERICENTER":96.9325,"MEAN_ANOMALY":263.1987,"EPHEMERIS_TYPE":0,"CLASSIFICATION_TYPE":"U","NORAD_CAT_ID":48976,"ELEMENT_SET_NO":999,"REV_AT_EPOCH":11214,"BSTAR":0.00016234,"MEAN_MOTION_DOT":7.5e-7,"MEAN_MOTION_DDOT":0},{"OBJECT_NAME":"ONEWEB-0259","OBJECT_ID":"2021-060L","EPOCH":"2023-10-22T14:14:20.427072","MEAN_MOTION":13.1659609,"ECCENTRICITY":0.0001396,"INCLINATION":87.9066,"RA_OF_ASC_NODE":61.5508,"ARG_OF_PERICENTER":92.5288,"MEAN_ANOMALY":267.6002,"EPHEMERIS_TYPE":0,"CLASSIFICATION_TYPE":"U","NORAD_CAT_ID":48977,"ELEMENT_SET_NO":999,"REV_AT_EPOCH":11217,"BSTAR":0.00013247,"MEAN_MOTION_DOT":6.3e-7,"MEAN_MOTION_DDOT":0},{"OBJECT_NAME":"ONEWEB-0260","OBJECT_ID":"2021-060M","EPOCH":"2023-10-22T08:36:54.474048","MEAN_MOTION":13.16596336,"ECCENTRICITY":0.0002425,"INCLINATION":87.9061,"RA_OF_ASC_NODE":61.6281,"ARG_OF_PERICENTER":91.8547,"MEAN_ANOMALY":268.2861,"EPHEMERIS_TYPE":0,"CLASSIFICATION_TYPE":"U","NORAD_CAT_ID":48978,"ELEMENT_SET_NO":999,"REV_AT_EPOCH":11212,"BSTAR":0.00025168,"MEAN_MOTION_DOT":1.09e-6,"MEAN_MOTION_DDOT":0},{"OBJECT_NAME":"ONEWEB-0261","OBJECT_ID":"2021-060N","EPOCH":"2023-10-22T15:06:00.310464","MEAN_MOTION":13.16597101,"ECCENTRICITY":0.0001743,"INCLINATION":87.9053,"RA_OF_ASC_NODE":61.5663,"ARG_OF_PERICENTER":76.6773,"MEAN_ANOMALY":283.4552,"EPHEMERIS_TYPE":0,"CLASSIFICATION_TYPE":"U","NORAD_CAT_ID":48979,"ELEMENT_SET_NO":999,"REV_AT_EPOCH":11221,"BSTAR":0.00018049,"MEAN_MOTION_DOT":8.2e-7,"MEAN_MOTION_DDOT":0},{"OBJECT_NAME":"ONEWEB-0262","OBJECT_ID":"2021-060P","EPOCH":"2023-10-22T14:38:39.817248","MEAN_MOTION":13.16592759,"ECCENTRICITY":0.0001236,"INCLINATION":87.9059,"RA_OF_ASC_NODE":61.534,"ARG_OF_PERICENTER":84.861,"MEAN_ANOMALY":275.2662,"EPHEMERIS_TYPE":0,"CLASSIFICATION_TYPE":"U","NORAD_CAT_ID":48980,"ELEMENT_SET_NO":999,"REV_AT_EPOCH":11217,"BSTAR":0.00015729,"MEAN_MOTION_DOT":7.3e-7,"MEAN_MOTION_DDOT":0},{"OBJECT_NAME":"ONEWEB-0263","OBJECT_ID":"2021-060Q","EPOCH":"2023-10-22T09:55:57.883296","MEAN_MOTION":13.16596328,"ECCENTRICITY":0.0001521,"INCLINATION":87.9057,"RA_OF_ASC_NODE":61.5887,"ARG_OF_PERICENTER":79.4326,"MEAN_ANOMALY":280.6976,"EPHEMERIS_TYPE":0,"CLASSIFICATION_TYPE":"U","NORAD_CAT_ID":48981,"ELEMENT_SET_NO":999,"REV_AT_EPOCH":11211,"BSTAR":0.00032415,"MEAN_MOTION_DOT":1.37e-6,"MEAN_MOTION_DDOT":0},{"OBJECT_NAME":"ONEWEB-0264","OBJECT_ID":"2021-060R","EPOCH":"2023-10-22T14:28:02.072064","MEAN_MOTION":13.16594251,"ECCENTRICITY":0.0001681,"INCLINATION":87.9067,"RA_OF_ASC_NODE":61.5553,"ARG_OF_PERICENTER":96.3876,"MEAN_ANOMALY":263.7447,"EPHEMERIS_TYPE":0,"CLASSIFICATION_TYPE":"U","NORAD_CAT_ID":48982,"ELEMENT_SET_NO":999,"REV_AT_EPOCH":11214,"BSTAR":-6.2645e-5,"MEAN_MOTION_DOT":-1.1e-7,"MEAN_MOTION_DDOT":0},{"OBJECT_NAME":"ONEWEB-0266","OBJECT_ID":"2021-060T","EPOCH":"2023-10-22T14:59:55.607424","MEAN_MOTION":13.16596394,"ECCENTRICITY":0.0001554,"INCLINATION":87.9061,"RA_OF_ASC_NODE":61.5364,"ARG_OF_PERICENTER":101.2335,"MEAN_ANOMALY":258.8971,"EPHEMERIS_TYPE":0,"CLASSIFICATION_TYPE":"U","NORAD_CAT_ID":48984,"ELEMENT_SET_NO":999,"REV_AT_EPOCH":11213,"BSTAR":0.0002597,"MEAN_MOTION_DOT":1.12e-6,"MEAN_MOTION_DDOT":0},{"OBJECT_NAME":"ONEWEB-0267","OBJECT_ID":"2021-060U","EPOCH":"2023-10-22T15:15:07.027200","MEAN_MOTION":13.16595605,"ECCENTRICITY":0.0001865,"INCLINATION":87.9059,"RA_OF_ASC_NODE":61.5354,"ARG_OF_PERICENTER":83.2329,"MEAN_ANOMALY":276.9014,"EPHEMERIS_TYPE":0,"CLASSIFICATION_TYPE":"U","NORAD_CAT_ID":48985,"ELEMENT_SET_NO":999,"REV_AT_EPOCH":11214,"BSTAR":-0.00054475,"MEAN_MOTION_DOT":-1.95e-6,"MEAN_MOTION_DDOT":0},{"OBJECT_NAME":"ONEWEB-0268","OBJECT_ID":"2021-060V","EPOCH":"2023-10-22T14:29:33.776160","MEAN_MOTION":13.16592399,"ECCENTRICITY":0.000168,"INCLINATION":87.9067,"RA_OF_ASC_NODE":61.5451,"ARG_OF_PERICENTER":98.0624,"MEAN_ANOMALY":262.0697,"EPHEMERIS_TYPE":0,"CLASSIFICATION_TYPE":"U","NORAD_CAT_ID":48986,"ELEMENT_SET_NO":999,"REV_AT_EPOCH":11240,"BSTAR":5.3052e-5,"MEAN_MOTION_DOT":3.3e-7,"MEAN_MOTION_DDOT":0},{"OBJECT_NAME":"ONEWEB-0269","OBJECT_ID":"2021-060W","EPOCH":"2023-10-22T08:33:52.840512","MEAN_MOTION":13.16596776,"ECCENTRICITY":0.0001688,"INCLINATION":87.9058,"RA_OF_ASC_NODE":61.6222,"ARG_OF_PERICENTER":100.0339,"MEAN_ANOMALY":260.0983,"EPHEMERIS_TYPE":0,"CLASSIFICATION_TYPE":"U","NORAD_CAT_ID":48987,"ELEMENT_SET_NO":999,"REV_AT_EPOCH":11214,"BSTAR":0.00036171,"MEAN_MOTION_DOT":1.51e-6,"MEAN_MOTION_DDOT":0},{"OBJECT_NAME":"ONEWEB-0270","OBJECT_ID":"2021-060X","EPOCH":"2023-10-22T14:26:28.062816","MEAN_MOTION":13.1663365,"ECCENTRICITY":0.00021,"INCLINATION":87.9064,"RA_OF_ASC_NODE":61.5586,"ARG_OF_PERICENTER":66.5824,"MEAN_ANOMALY":293.5528,"EPHEMERIS_TYPE":0,"CLASSIFICATION_TYPE":"U","NORAD_CAT_ID":48988,"ELEMENT_SET_NO":999,"REV_AT_EPOCH":11221,"BSTAR":-0.018345,"MEAN_MOTION_DOT":-6.999e-5,"MEAN_MOTION_DDOT":0},{"OBJECT_NAME":"ONEWEB-0271","OBJECT_ID":"2021-060Y","EPOCH":"2023-10-22T14:08:15.031104","MEAN_MOTION":13.16593487,"ECCENTRICITY":0.0001746,"INCLINATION":87.9062,"RA_OF_ASC_NODE":61.5363,"ARG_OF_PERICENTER":80.8383,"MEAN_ANOMALY":279.2945,"EPHEMERIS_TYPE":0,"CLASSIFICATION_TYPE":"U","NORAD_CAT_ID":48989,"ELEMENT_SET_NO":999,"REV_AT_EPOCH":11221,"BSTAR":0.00013458,"MEAN_MOTION_DOT":6.4e-7,"MEAN_MOTION_DDOT":0},{"OBJECT_NAME":"ONEWEB-0272","OBJECT_ID":"2021-060Z","EPOCH":"2023-10-22T14:41:40.734528","MEAN_MOTION":13.1659862,"ECCENTRICITY":0.0001969,"INCLINATION":87.9058,"RA_OF_ASC_NODE":61.5557,"ARG_OF_PERICENTER":84.7026,"MEAN_ANOMALY":275.433,"EPHEMERIS_TYPE":0,"CLASSIFICATION_TYPE":"U","NORAD_CAT_ID":48990,"ELEMENT_SET_NO":999,"REV_AT_EPOCH":11216,"BSTAR":-0.0024414,"MEAN_MOTION_DOT":-9.2e-6,"MEAN_MOTION_DDOT":0}]
