ONEWEB-0255             
1 48973U 21060G   23295.61440894 -.00000003  00000+0 -40619-4 0  9995
2 48973  87.9059  61.5579 0001630  98.2415 261.8901 13.16594561112218
ONEWEB-0256             
1 48974U 21060H   23295.41172746  .00000181  00000+0  43970-3 0  9999
2 48974  87.9056  61.6018 0001906  98.4086 261.7261 13.16596399112159
ONEWEB-0257             
1 48975U 21060J   23295.59750656  .00000063  00000+0  13130-3 0  9995
2 48975  87.9063  61.5362 0001810  93.9998 266.1340 13.16596414112138
ONEWEB-0258             
1 48976U 21060K   23295.59962199  .00000075  00000+0  16234-3 0  9994
2 48976  87.9061  61.5647 0001594  96.9325 263.1987 13.16595725112148
ONEWEB-0259             
1 48977U 21060L   23295.59329198  .00000063  00000+0  13247-3 0  9999
2 48977  87.9066  61.5508 0001396  92.5288 267.6002 13.16596090112176
ONEWEB-0260             
1 48978U 21060M   23295.35896382  .00000109  00000+0  25168-3 0  9994
2 48978  87.9061  61.6281 0002425  91.8547 268.2861 13.16596336112123
ONEWEB-0261             
1 48979U 21060N   23295.62917026  .00000082  00000+0  18049-3 0  9994
2 48979  87.9053  61.5663 0001743  76.6773 283.4552 13.16597101112219
ONEWEB-0262             
1 48980U 21060P   23295.61018307  .00000073  00000+0  15729-3 0  9991
2 48980  87.9059  61.5340 0001236  84.8610 275.2662 13.16592759112177
ONEWEB-0263             
1 48981U 21060Q   23295.41386439  .00000137  00000+0  32415-3 0  9996
2 48981  87.9057  61.5887 0001521  79.4326 280.6976 13.16596328112111
ONEWEB-0264             
1 48982U 21060R   23295.60280176 -.00000011  00000+0 -62645-4 0  9991
2 48982  87.9067  61.5553 0001681  96.3876 263.7447 13.16594251112149
ONEWEB-0266             
1 48984U 21060T   23295.62494916  .00000112  00000+0  25970-3 0  9993
2 48984  87.9061  61.5364 0001554 101.2335 258.8971 13.16596394112136
ONEWEB-0267             
1 48985U 21060U   23295.63549800 -.00000195  00000+0 -54475-3 0  9993
2 48985  87.9059  61.5354 0001865  83.2329 276.9014 13.16595605112144
ONEWEB-0268             
1 48986U 21060V   23295.60386315  .00000033  00000+0  53052-4 0  9991
2 48986  87.9067  61.5451 0001680  98.0624 262.0697 13.16592399112408
ONEWEB-0269             
1 48987U 21060W   23295.35686158  .00000151  00000+0  36171-3 0  9995
2 48987  87.9058  61.6222 0001688 100.0339 260.0983 13.16596776112141
ONEWEB-0270             
1 48988U 21060X   23295.60171369 -.00006999  00000+0 -18345-1 0  9996
2 48988  87.9064  61.5586 0002100  66.5824 293.5528 13.16633650112213
ONEWEB-0271             
1 48989U 21060Y   23295.58906286  .00000064  00000+0  13458-3 0  9995
2 48989  87.9062  61.5363 0001746  80.8383 279.2945 13.16593487112216
ONEWEB-0272             
1 48990U 21060Z   23295.61227702 -.00000920  00000+0 -24414-2 0  9996
2 48990  87.9058  61.5557 0001969  84.7026 275.4330 13.16598620112166
